[{"OBJECT_NAME":"CS1","OBJECT_ID":"2021-088B","EPOCH":"2026-03-09T18:02:30.253920","MEAN_MOTION":15.31848439,"ECCENTRICITY":0.00141292,"INCLINATION":97.3882,"RA_OF_ASC_NODE":132.1684,"ARG_OF_PERICENTER":78.0335,"MEAN_ANOMALY":282.249,"EPHEMERIS_TYPE":0,"CLASSIFICATION_TYPE":"U","NORAD_CAT_ID":49261,"ELEMENT_SET_NO":999,"REV_AT_EPOCH":24518,"BSTAR":0.00051175576,"MEAN_MOTION_DOT":0.00015722,"MEAN_MOTION_DDOT":0},{"OBJECT_NAME":"STARLINK-33652","OBJECT_ID":"2025-065B","EPOCH":"2026-03-09T03:48:55.836576","MEAN_MOTION":15.275786,"ECCENTRICITY":0.00011441,"INCLINATION":43.001,"RA_OF_ASC_NODE":109.6567,"ARG_OF_PERICENTER":267.3836,"MEAN_ANOMALY":92.6884,"EPHEMERIS_TYPE":0,"CLASSIFICATION_TYPE":"U","NORAD_CAT_ID":63400,"ELEMENT_SET_NO":999,"REV_AT_EPOCH":5276,"BSTAR":0.00080246304,"MEAN_MOTION_DOT":0.00021884,"MEAN_MOTION_DDOT":0}]
