CS1                     
1 49261U 21088B   26068.75173904  .00015722  00000+0  51176-3 0  9998
2 49261  97.3882 132.1684 0014129  78.0335 282.2490 15.31848439245182
STARLINK-33652          
1 63400U 25065B   26068.15897959  .00021884  00000+0  80246-3 0  9991
2 63400  43.0010 109.6567 0001144 267.3836  92.6884 15.27578600 52760
